{
    "links": {
        "self": "http://www.neowsapp.com/rest/v1/neo/54017112?api_key=iIulBulltgU6a56xZRHN4H3l9WmuAYTsLGpBGhQ2"
    },
    "id": "54017112",
    "neo_reference_id": "54017112",
    "name": "(2020 KH1)",
    "designation": "2020 KH1",
    "nasa_jpl_url": "http://ssd.jpl.nasa.gov/sbdb.cgi?sstr=54017112",
    "absolute_magnitude_h": 27.413,
    "estimated_diameter": {
        "kilometers": {
            "estimated_diameter_min": 0.0087489307,
            "estimated_diameter_max": 0.0195632038
        },
        "meters": {
            "estimated_diameter_min": 8.7489307019,
            "estimated_diameter_max": 19.5632037799
        },
        "miles": {
            "estimated_diameter_min": 0.0054363318,
            "estimated_diameter_max": 0.0121560075
        },
        "feet": {
            "estimated_diameter_min": 28.7038418041,
            "estimated_diameter_max": 64.1837414893
        }
    },
    "is_potentially_hazardous_asteroid": false,
    "close_approach_data": [
        {
            "close_approach_date": "2019-10-13",
            "close_approach_date_full": "2019-Oct-13 02:30",
            "epoch_date_close_approach": 1570933800000,
            "relative_velocity": {
                "kilometers_per_second": "7.3610221448",
                "kilometers_per_hour": "26499.6797212719",
                "miles_per_hour": "16465.8704356981"
            },
            "miss_distance": {
                "astronomical": "0.3369421394",
                "lunar": "131.0704922266",
                "kilometers": "50405826.367483078",
                "miles": "31320728.1432913564"
            },
            "orbiting_body": "Earth"
        },
        {
            "close_approach_date": "2020-05-10",
            "close_approach_date_full": "2020-May-10 18:02",
            "epoch_date_close_approach": 1589133720000,
            "relative_velocity": {
                "kilometers_per_second": "8.4867946168",
                "kilometers_per_hour": "30552.4606203873",
                "miles_per_hour": "18984.1108782623"
            },
            "miss_distance": {
                "astronomical": "0.0062483175",
                "lunar": "2.4305955075",
                "kilometers": "934734.989083725",
                "miles": "580817.389356405"
            },
            "orbiting_body": "Earth"
        },
        {
            "close_approach_date": "2020-05-10",
            "close_approach_date_full": "2020-May-10 22:09",
            "epoch_date_close_approach": 1589148540000,
            "relative_velocity": {
                "kilometers_per_second": "9.0578362778",
                "kilometers_per_hour": "32608.210600169",
                "miles_per_hour": "20261.4739698661"
            },
            "miss_distance": {
                "astronomical": "0.0084073241",
                "lunar": "3.2704490749",
                "kilometers": "1257717.777759667",
                "miles": "781509.5880187246"
            },
            "orbiting_body": "Moon"
        }
    ],
    "orbital_data": {
        "orbit_id": "1",
        "orbit_determination_date": "2020-05-19 12:42:05",
        "first_observation_date": "2020-05-17",
        "last_observation_date": "2020-05-19",
        "data_arc_in_days": 2,
        "observations_used": 14,
        "orbit_uncertainty": "8",
        "minimum_orbit_intersection": ".00270901",
        "jupiter_tisserand_invariant": "5.512",
        "epoch_osculation": "2458987.5",
        "eccentricity": ".224311669108047",
        "semi_major_axis": "1.125650008995091",
        "inclination": "11.21535372595067",
        "ascending_node_longitude": "229.29504467",
        "orbital_period": "436.2179129805108",
        "perihelion_distance": ".8731535766459138",
        "perihelion_argument": "286.2441405359966",
        "aphelion_distance": "1.378146441344267",
        "perihelion_time": "2458918.566137958833",
        "mean_anomaly": "56.8894343775581",
        "mean_motion": ".8252756003077846",
        "equinox": "J2000",
        "orbit_class": {
            "orbit_class_type": "APO",
            "orbit_class_description": "Near-Earth asteroid orbits which cross the Earth’s orbit similar to that of 1862 Apollo",
            "orbit_class_range": "a (semi-major axis) > 1.0 AU; q (perihelion) < 1.017 AU"
        }
    },
    "is_sentry_object": false
}